{
  "type": "FeatureCollection",
  "features": [
    {
      "type": "Feature",
      "properties": {
        "norad_id": 39160,
        "name": "VNREDSAT 1",
        "group": "resource",
        "lat": 12.029822228380603,
        "lon": 37.16708513522874,
        "alt_km": 678.288697177245,
        "timestamp": "2025-12-09T11:33:54.457360+00:00",
        "meta_object_name": "VNREDSAT 1",
        "meta_object_id": "2013-021B",
        "meta_epoch": "2025-12-09T04:57:09.441792",
        "meta_mean_motion": 14.64915028,
        "meta_eccentricity": 0.0001324,
        "meta_inclination": 97.9375,
        "meta_ra_of_asc_node": 38.605,
        "meta_arg_of_pericenter": 80.3023,
        "meta_mean_anomaly": 279.833,
        "meta_ephemeris_type": 0,
        "meta_classification_type": "U",
        "meta_norad_cat_id": 39160,
        "meta_element_set_no": 999,
        "meta_rev_at_epoch": 67247,
        "meta_bstar": 0.00021287,
        "meta_mean_motion_dot": 1.093e-05,
        "meta_mean_motion_ddot": 0,
        "tle_line1": "1 39160U 13021B   25343.20635928  .00001093  00000+0  21287-3 0  9993",
        "tle_line2": "2 39160  97.9375  38.6050 0001324  80.3023 279.8330 14.64915028672477"
      },
      "geometry": {
        "type": "Point",
        "coordinates": [
          37.16708513522874,
          12.029822228380603
        ]
      }
    },
    {
      "type": "Feature",
      "properties": {
        "norad_id": 39227,
        "name": "ARIRANG-5 (KOMPSAT-5)",
        "group": "resource",
        "lat": -12.780986273735053,
        "lon": 169.57189425743394,
        "alt_km": 557.0126140839657,
        "timestamp": "2025-12-09T11:33:54.457370+00:00",
        "meta_object_name": "ARIRANG-5 (KOMPSAT-5)",
        "meta_object_id": "2013-042A",
        "meta_epoch": "2025-12-09T03:38:28.108608",
        "meta_mean_motion": 15.04483704,
        "meta_eccentricity": 0.0003953,
        "meta_inclination": 97.6148,
        "meta_ra_of_asc_node": 167.5075,
        "meta_arg_of_pericenter": 64.9508,
        "meta_mean_anomaly": 295.2128,
        "meta_ephemeris_type": 0,
        "meta_classification_type": "U",
        "meta_norad_cat_id": 39227,
        "meta_element_set_no": 999,
        "meta_rev_at_epoch": 67528,
        "meta_bstar": 0.00019857,
        "meta_mean_motion_dot": 2.718e-05,
        "meta_mean_motion_ddot": 0,
        "tle_line1": "1 39227U 13042A   25343.15171422  .00002718  00000+0  19857-3 0  9993",
        "tle_line2": "2 39227  97.6148 167.5075 0003953  64.9508 295.2128 15.04483704675286"
      },
      "geometry": {
        "type": "Point",
        "coordinates": [
          169.57189425743394,
          -12.780986273735053
        ]
      }
    },
    {
      "type": "Feature",
      "properties": {
        "norad_id": 39418,
        "name": "SKYSAT-A",
        "group": "resource",
        "lat": -79.5070383860311,
        "lon": 78.43861416525812,
        "alt_km": 526.2163590502023,
        "timestamp": "2025-12-09T11:33:54.457380+00:00",
        "meta_object_name": "SKYSAT-A",
        "meta_object_id": "2013-066C",
        "meta_epoch": "2025-12-09T02:23:48.583968",
        "meta_mean_motion": 15.11559541,
        "meta_eccentricity": 0.0020707,
        "meta_inclination": 97.4109,
        "meta_ra_of_asc_node": 33.4188,
        "meta_arg_of_pericenter": 250.2261,
        "meta_mean_anomaly": 109.6736,
        "meta_ephemeris_type": 0,
        "meta_classification_type": "U",
        "meta_norad_cat_id": 39418,
        "meta_element_set_no": 999,
        "meta_rev_at_epoch": 65975,
        "meta_bstar": 0.00030622,
        "meta_mean_motion_dot": 5.156e-05,
        "meta_mean_motion_ddot": 0,
        "tle_line1": "1 39418U 13066C   25343.09986787  .00005156  00000+0  30622-3 0  9994",
        "tle_line2": "2 39418  97.4109  33.4188 0020707 250.2261 109.6736 15.11559541659759"
      },
      "geometry": {
        "type": "Point",
        "coordinates": [
          78.43861416525812,
          -79.5070383860311
        ]
      }
    },
    {
      "type": "Feature",
      "properties": {
        "norad_id": 39419,
        "name": "DUBAISAT-2",
        "group": "resource",
        "lat": 79.37065536766441,
        "lon": -161.84531996002195,
        "alt_km": 538.3368677103972,
        "timestamp": "2025-12-09T11:33:54.457390+00:00",
        "meta_object_name": "DUBAISAT-2",
        "meta_object_id": "2013-066D",
        "meta_epoch": "2025-12-09T04:45:55.770624",
        "meta_mean_motion": 15.08303597,
        "meta_eccentricity": 0.0011002,
        "meta_inclination": 97.4445,
        "meta_ra_of_asc_node": 333.7155,
        "meta_arg_of_pericenter": 333.9703,
        "meta_mean_anomaly": 26.0971,
        "meta_ephemeris_type": 0,
        "meta_classification_type": "U",
        "meta_norad_cat_id": 39419,
        "meta_element_set_no": 999,
        "meta_rev_at_epoch": 65773,
        "meta_bstar": 0.0005608,
        "meta_mean_motion_dot": 8.654e-05,
        "meta_mean_motion_ddot": 0,
        "tle_line1": "1 39419U 13066D   25343.19856216  .00008654  00000+0  56080-3 0  9991",
        "tle_line2": "2 39419  97.4445 333.7155 0011002 333.9703  26.0971 15.08303597657734"
      },
      "geometry": {
        "type": "Point",
        "coordinates": [
          -161.84531996002195,
          79.37065536766441
        ]
      }
    },
    {
      "type": "Feature",
      "properties": {
        "norad_id": 39574,
        "name": "GPM-CORE",
        "group": "resource",
        "lat": 21.894831034386993,
        "lon": 32.77193593724314,
        "alt_km": 431.82439667978724,
        "timestamp": "2025-12-09T11:33:54.457401+00:00",
        "meta_object_name": "GPM-CORE",
        "meta_object_id": "2014-009C",
        "meta_epoch": "2025-12-09T03:07:40.767744",
        "meta_mean_motion": 15.45431887,
        "meta_eccentricity": 0.001051,
        "meta_inclination": 64.9737,
        "meta_ra_of_asc_node": 224.7725,
        "meta_arg_of_pericenter": 269.8477,
        "meta_mean_anomaly": 90.146,
        "meta_ephemeris_type": 0,
        "meta_classification_type": "U",
        "meta_norad_cat_id": 39574,
        "meta_element_set_no": 999,
        "meta_rev_at_epoch": 66845,
        "meta_bstar": 0.00036305,
        "meta_mean_motion_dot": 0.00017291,
        "meta_mean_motion_ddot": 0,
        "tle_line1": "1 39574U 14009C   25343.13033296  .00017291  00000+0  36305-3 0  9995",
        "tle_line2": "2 39574  64.9737 224.7725 0010510 269.8477  90.1460 15.45431887668450"
      },
      "geometry": {
        "type": "Point",
        "coordinates": [
          32.77193593724314,
          21.894831034386993
        ]
      }
    },
    {
      "type": "Feature",
      "properties": {
        "norad_id": 39634,
        "name": "SENTINEL-1A",
        "group": "resource",
        "lat": -58.899113736685536,
        "lon": 2.5653022852017995,
        "alt_km": 703.5760324891125,
        "timestamp": "2025-12-09T11:33:54.457411+00:00",
        "meta_object_name": "SENTINEL-1A",
        "meta_object_id": "2014-016A",
        "meta_epoch": "2025-12-09T03:36:38.259648",
        "meta_mean_motion": 14.59200679,
        "meta_eccentricity": 0.0001254,
        "meta_inclination": 98.1799,
        "meta_ra_of_asc_node": 348.4445,
        "meta_arg_of_pericenter": 83.957,
        "meta_mean_anomaly": 276.1773,
        "meta_ephemeris_type": 0,
        "meta_classification_type": "U",
        "meta_norad_cat_id": 39634,
        "meta_element_set_no": 999,
        "meta_rev_at_epoch": 62230,
        "meta_bstar": 9.137e-05,
        "meta_mean_motion_dot": 3.85e-06,
        "meta_mean_motion_ddot": 0,
        "tle_line1": "1 39634U 14016A   25343.15044282  .00000385  00000+0  91370-4 0  9999",
        "tle_line2": "2 39634  98.1799 348.4445 0001254  83.9570 276.1773 14.59200679622305"
      },
      "geometry": {
        "type": "Point",
        "coordinates": [
          2.5653022852017995,
          -58.899113736685536
        ]
      }
    },
    {
      "type": "Feature",
      "properties": {
        "norad_id": 39731,
        "name": "KAZEOSAT 1",
        "group": "resource",
        "lat": 63.317519574435465,
        "lon": -107.55911551701581,
        "alt_km": 744.7976484973742,
        "timestamp": "2025-12-09T11:33:54.457420+00:00",
        "meta_object_name": "KAZEOSAT 1",
        "meta_object_id": "2014-024A",
        "meta_epoch": "2025-12-09T04:22:15.544704",
        "meta_mean_motion": 14.42059065,
        "meta_eccentricity": 0.0001069,
        "meta_inclination": 98.3436,
        "meta_ra_of_asc_node": 55.1692,
        "meta_arg_of_pericenter": 95.9816,
        "meta_mean_anomaly": 264.1496,
        "meta_ephemeris_type": 0,
        "meta_classification_type": "U",
        "meta_norad_cat_id": 39731,
        "meta_element_set_no": 999,
        "meta_rev_at_epoch": 61117,
        "meta_bstar": 8.435e-05,
        "meta_mean_motion_dot": 2.34e-06,
        "meta_mean_motion_ddot": 0,
        "tle_line1": "1 39731U 14024A   25343.18212436  .00000234  00000+0  84350-4 0  9990",
        "tle_line2": "2 39731  98.3436  55.1692 0001069  95.9816 264.1496 14.42059065611174"
      },
      "geometry": {
        "type": "Point",
        "coordinates": [
          -107.55911551701581,
          63.317519574435465
        ]
      }
    }
  ]
}